NORAD_CAT_ID,OBJECT_NAME,OBJECT_TYPE,EPOCH,MEAN_MOTION,ECCENTRICITY,INCLINATION,RA_OF_ASC_NODE,ARG_OF_PERICENTER,MEAN_ANOMALY,BSTAR,MEAN_MOTION_DOT,MEAN_MOTION_DDOT,TLE_LINE0,TLE_LINE1,TLE_LINE2,SEMIMAJOR_AXIS,PERIOD,APOGEE,PERIGEE,DECAYED
51996.0,STARLINK-3538,PAYLOAD,2024-05-01 21:16:34,15.08845012,0.0001603,53.2152,177.4107,74.1106,286.0063,0.00010317,1.355e-05,0.0,0 STARLINK-3538,1 51996U 22025AS  24122.88651449  .00001355  00000-0  10317-3 0  9996,2 51996  53.2152 177.4107 0001603  74.1106 286.0063 15.08845012118746,6917.865,95.437,540.839,538.621,0.0
51996.0,STARLINK-3538,PAYLOAD,2024-05-02 13:10:26,15.0884323,0.0001543,53.2175,174.4345,87.4301,272.6867,-4.2125e-05,-9.58e-06,0.0,0 STARLINK-3538,1 51996U 22025AS  24123.54891844 -.00000958  00000-0 -42125-4 0  9998,2 51996  53.2175 174.4345 0001543  87.4301 272.6867 15.08843230120363,6917.871,95.437,540.803,538.668,0.0
51996.0,STARLINK-3538,PAYLOAD,2024-05-03 09:50:26,15.08852699,0.0001557,53.2168,170.5696,89.1651,270.9519,0.0002124,3.095e-05,0.0,0 STARLINK-3538,1 51996U 22025AS  24124.41002898  .00003095  00000-0  21240-3 0  9995,2 51996  53.2168 170.5696 0001557  89.1651 270.9519 15.08852699120491,6917.842,95.437,540.784,538.629,0.0
51996.0,STARLINK-3538,PAYLOAD,2024-05-04 03:19:42,15.08832211,0.0001517,53.2163,167.2986,84.1807,275.9358,4.2731e-05,3.92e-06,0.0,0 STARLINK-3538,1 51996U 22025AS  24125.13868110  .00000392  00000-0  42731-4 0  9998,2 51996  53.2163 167.2986 0001517  84.1807 275.9358 15.08832211120602,6917.904,95.438,540.819,538.72,0.0
51996.0,STARLINK-3538,PAYLOAD,2024-05-05 09:32:01,15.08838092,0.0001389,53.2154,161.6493,95.7318,264.3832,0.00014028,1.945e-05,0.0,0 STARLINK-3538,1 51996U 22025AS  24126.39724477  .00001945  00000-0  14028-3 0  9996,2 51996  53.2154 161.6493 0001389  95.7318 264.3832 15.08838092120797,6917.886,95.438,540.712,538.79,0.0
51996.0,STARLINK-3538,PAYLOAD,2024-05-06 09:22:48,15.08856124,0.0001362,53.215,157.1884,96.4111,263.7036,0.000589,9.103e-05,0.0,0 STARLINK-3538,1 51996U 22025AS  24127.39084214  .00009103  00000-0  58900-3 0  9996,2 51996  53.2150 157.1884 0001362  96.4111 263.7036 15.08856124119420,6917.831,95.437,540.638,538.754,0.0
51996.0,STARLINK-3538,PAYLOAD,2024-05-06 18:55:07,15.08855289,0.0001348,53.2147,155.4034,91.6407,268.4739,0.0004054,6.173e-05,0.0,0 STARLINK-3538,1 51996U 22025AS  24127.78827964  .00006173  00000-0  40540-3 0  9991,2 51996  53.2147 155.4034 0001348  91.6407 268.4739 15.08855289121003,6917.834,95.437,540.631,538.766,0.0
51996.0,STARLINK-3538,PAYLOAD,2024-05-07 10:48:58,15.08845063,0.0001448,53.2151,152.4304,86.9261,273.1896,9.3433e-05,1.2e-05,0.0,0 STARLINK-3538,1 51996U 22025AS  24128.45068105  .00001200  00000-0  93433-4 0  9996,2 51996  53.2151 152.4304 0001448  86.9261 273.1896 15.08845063121108,6917.865,95.437,540.732,538.728,0.0
51996.0,STARLINK-3538,PAYLOAD,2024-05-08 09:04:23,15.08843489,0.0001451,53.2164,148.2665,88.3643,271.7515,-3.8428e-06,-3.49e-06,0.0,0 STARLINK-3538,1 51996U 22025AS  24129.37804562 -.00000349  00000-0 -38428-5 0  9992,2 51996  53.2164 148.2665 0001451  88.3643 271.7515 15.08843489121246,6917.87,95.437,540.739,538.731,0.0
51996.0,STARLINK-3538,PAYLOAD,2024-05-09 07:19:46,15.08846399,0.0001424,53.2162,144.1029,88.9938,271.1217,0.00012819,1.753e-05,0.0,0 STARLINK-3538,1 51996U 22025AS  24130.30539861  .00001753  00000-0  12819-3 0  9996,2 51996  53.2162 144.1029 0001424  88.9938 271.1217 15.08846399119867,6917.861,95.437,540.711,538.741,0.0
51996.0,STARLINK-3538,PAYLOAD,2024-05-10 03:59:46,15.0885163,0.0001435,53.2164,140.2366,92.2752,267.8404,0.00019075,2.75e-05,0.0,0 STARLINK-3538,1 51996U 22025AS  24131.16651365  .00002750  00000-0  19075-3 0  9994,2 51996  53.2164 140.2366 0001435  92.2752 267.8404 15.08851630121513,6917.845,95.437,540.703,538.717,0.0
51996.0,STARLINK-3538,PAYLOAD,2024-05-10 10:21:19,15.0885382,0.0001452,53.2146,139.0482,82.6721,277.4436,0.00026204,3.886e-05,0.0,0 STARLINK-3538,1 51996U 22025AS  24131.43147473  .00003886  00000-0  26204-3 0  9997,2 51996  53.2146 139.0482 0001452  82.6721 277.4436 15.08853820120037,6917.838,95.437,540.708,538.699,0.0
51996.0,STARLINK-3538,PAYLOAD,2024-05-11 03:50:34,15.08843051,0.0001522,53.2145,135.7774,90.4385,269.6782,7.1498e-06,-1.74e-06,0.0,0 STARLINK-3538,1 51996U 22025AS  24132.16011887 -.00000174  00000-0  71498-5 0  9992,2 51996  53.2145 135.7774 0001522  90.4385 269.6782 15.08843051121666,6917.871,95.437,540.789,538.683,0.0
51996.0,STARLINK-3538,PAYLOAD,2024-05-11 05:25:57,15.08845753,0.0001681,53.2148,135.4801,89.9794,270.1391,4.8751e-05,4.88e-06,0.0,0 STARLINK-3538,1 51996U 22025AS  24132.22635776  .00000488  00000-0  48751-4 0  9990,2 51996  53.2148 135.4801 0001681  89.9794 270.1391 15.08845753120157,6917.863,95.437,540.891,538.565,0.0
51996.0,STARLINK-3538,PAYLOAD,2024-05-12 05:16:44,15.087839,0.000118,53.2154,131.0182,90.3118,269.8009,-0.0017054,-0.00027285,0.0,0 STARLINK-3538,1 51996U 22025AS  24133.21995669 -.00027285  00000-0 -17054-2 0  9996,2 51996  53.2154 131.0182 0001180  90.3118 269.8009 15.08783900121829,6918.052,95.441,540.733,539.101,0.0
51996.0,STARLINK-3538,PAYLOAD,2024-05-12 06:52:07,15.08785895,0.0001143,53.2154,130.7214,82.5419,277.5703,-0.0012905,-0.00020737,0.0,0 STARLINK-3538,1 51996U 22025AS  24133.28620356 -.00020737  00000-0 -12905-2 0  9996,2 51996  53.2154 130.7214 0001143  82.5419 277.5703 15.08785895120312,6918.046,95.441,540.702,539.12,0.0
51996.0,STARLINK-3538,PAYLOAD,2024-05-12 16:24:28,15.08793121,0.0001193,53.2163,128.9372,78.2438,281.8688,-0.00066537,-0.00010848,0.0,0 STARLINK-3538,1 51996U 22025AS  24133.68366004 -.00010848  00000-0 -66537-3 0  9990,2 51996  53.2163 128.9372 0001193  78.2438 281.8688 15.08793121121899,6918.024,95.441,540.714,539.063,0.0
51996.0,STARLINK-3538,PAYLOAD,2024-05-13 05:07:34,15.08802199,0.0001304,53.2166,126.5589,78.5773,281.5366,0.00014134,1.96e-05,0.0,0 STARLINK-3538,1 51996U 22025AS  24134.21359387  .00001960  00000-0  14134-3 0  9995,2 51996  53.2166 126.5589 0001304  78.5773 281.5366 15.08802199121970,6917.996,95.44,540.763,538.959,0.0
51996.0,STARLINK-3538,PAYLOAD,2024-05-13 06:42:57,15.08805341,0.0001129,53.2143,126.2589,62.924,297.1868,0.00032568,4.894e-05,0.0,0 STARLINK-3538,1 51996U 22025AS  24134.27983442  .00004894  00000-0  32568-3 0  9996,2 51996  53.2143 126.2589 0001129  62.9240 297.1868 15.08805341120468,6917.986,95.44,540.632,539.07,0.0
51996.0,STARLINK-3538,PAYLOAD,2024-05-13 16:15:17,15.08823701,0.0001139,53.215,124.4746,52.2391,307.8704,0.0010565,0.00016559,0.0,0 STARLINK-3538,1 51996U 22025AS  24134.67728099  .00016559  00000-0  10565-2 0  9998,2 51996  53.2150 124.4746 0001139  52.2391 307.8704 15.08823701122045,6917.93,95.439,540.583,539.007,0.0
51996.0,STARLINK-3538,PAYLOAD,2024-05-14 04:58:21,15.0886065,0.0001102,53.2149,122.0963,56.3346,303.7751,0.0014548,0.00022954,0.0,0 STARLINK-3538,1 51996U 22025AS  24135.20719678  .00022954  00000-0  14548-2 0  9992,2 51996  53.2149 122.0963 0001102  56.3346 303.7751 15.08860650122123,6917.817,95.436,540.445,538.92,0.0
51996.0,STARLINK-3538,PAYLOAD,2024-05-14 08:09:07,15.08862974,0.000109,53.2147,121.5016,55.7914,304.3182,0.0013138,0.00020696,0.0,0 STARLINK-3538,1 51996U 22025AS  24135.33967538  .00020696  00000-0  13138-2 0  9991,2 51996  53.2147 121.5016 0001090  55.7914 304.3182 15.08862974120623,6917.81,95.436,540.429,538.921,0.0
51996.0,STARLINK-3538,PAYLOAD,2024-05-14 16:06:03,15.08873397,0.0001098,53.2151,120.0158,63.1345,296.976,0.0013635,0.00021499,0.0,0 STARLINK-3538,1 51996U 22025AS  24135.67087019  .00021499  00000-0  13635-2 0  9999,2 51996  53.2151 120.0158 0001098  63.1345 296.9760 15.08873397120672,6917.778,95.435,540.403,538.884,0.0
51996.0,STARLINK-3538,PAYLOAD,2024-05-15 04:49:07,15.08888944,0.0001127,53.215,117.6369,63.6308,296.48,0.001337,0.00021083,0.0,0 STARLINK-3538,1 51996U 22025AS  24136.20077631  .00021083  00000-0  13370-2 0  9993,2 51996  53.2150 117.6369 0001127  63.6308 296.4800 15.08888944122276,6917.731,95.434,540.375,538.816,0.0
51996.0,STARLINK-3538,PAYLOAD,2024-05-15 06:24:30,15.08891273,0.0001139,53.2151,117.3397,63.6033,296.5076,0.0013495,0.00021285,0.0,0 STARLINK-3538,1 51996U 22025AS  24136.26701420  .00021285  00000-0  13495-2 0  9991,2 51996  53.2151 117.3397 0001139  63.6033 296.5076 15.08891273120760,6917.724,95.434,540.377,538.801,0.0
51996.0,STARLINK-3538,PAYLOAD,2024-05-15 22:18:20,15.08867145,0.0001139,53.215,114.3672,58.8016,301.3087,0.0009846,0.00015428,0.0,0 STARLINK-3538,1 51996U 22025AS  24136.92940910  .00015428  00000-0  98460-3 0  9991,2 51996  53.2150 114.3672 0001139  58.8016 301.3087 15.08867145120868,6917.797,95.436,540.45,538.874,0.0
51996.0,STARLINK-3538,PAYLOAD,2024-05-16 04:39:53,15.08870717,9.91e-05,53.2151,113.1768,78.7233,281.3871,0.00061206,9.475e-05,0.0,0 STARLINK-3538,1 51996U 22025AS  24137.19436399  .00009475  00000-0  61206-3 0  9995,2 51996  53.2151 113.1768 0000991  78.7233 281.3871 15.08870717122420,6917.787,95.436,540.337,538.966,0.0
51996.0,STARLINK-3538,PAYLOAD,2024-05-16 22:09:07,15.08851621,0.0001243,53.2155,109.9059,85.2581,274.8553,0.00095683,0.00014978,0.0,0 STARLINK-3538,1 51996U 22025AS  24137.92300634  .00014978  00000-0  95683-3 0  9998,2 51996  53.2155 109.9059 0001243  85.2581 274.8553 15.08851621121011,6917.845,95.437,540.57,538.85,0.0
51996.0,STARLINK-3538,PAYLOAD,2024-05-17 04:30:40,15.08843559,0.0001233,53.2146,108.7181,95.0422,265.0711,0.00020566,2.987e-05,0.0,0 STARLINK-3538,1 51996U 22025AS  24138.18796592  .00002987  00000-0  20566-3 0  9994,2 51996  53.2146 108.7181 0001233  95.0422 265.0711 15.08843559122577,6917.87,95.437,540.587,538.882,0.0
51996.0,STARLINK-3538,PAYLOAD,2024-05-17 15:38:22,15.08835538,0.0001453,53.2162,106.634,94.1033,266.0126,1.8788e-05,1.1e-07,0.0,0 STARLINK-3538,1 51996U 22025AS  24138.65165181  .00000011  00000-0  18788-4 0  9990,2 51996  53.2162 106.6340 0001453  94.1033 266.0126 15.08835538122648,6917.894,95.438,540.764,538.754,0.0
